{"type": "FeatureCollection", "features": [ {"type": "Feature", "properties": {"norad_id": 58662, "name": "TIANMU-1 21", "group": "weather", "lat": 36.57264359944524, "lon": 87.4221515201198, "alt_km": 470.53682677970755, "timestamp": "2025-12-05T14:45:14.958045+00:00", "meta": {"OBJECT_NAME": "TIANMU-1 21", "OBJECT_ID": "2023-208C", "EPOCH": "2025-12-04T18:12:19.887264", "MEAN_MOTION": 15.31290573, "ECCENTRICITY": 0.0005943, "INCLINATION": 97.4382, "RA_OF_ASC_NODE": 92.1258, "ARG_OF_PERICENTER": 293.3099, "MEAN_ANOMALY": 66.7516, "EPHEMERIS_TYPE": 0, "CLASSIFICATION_TYPE": "U", "NORAD_CAT_ID": 58662, "ELEMENT_SET_NO": 999, "REV_AT_EPOCH": 10777, "BSTAR": 0.00069242, "MEAN_MOTION_DOT": 0.00020893, "MEAN_MOTION_DDOT": 0}, "tle": {"line1": "1 58662U 23208C   25338.75856351  .00020893  00000+0  69242-3 0  9990", "line2": "2 58662  97.4382  92.1258 0005943 293.3099  66.7516 15.31290573107774"}}, "geometry": {"type": "Point", "coordinates": [87.4221515201198, 36.57264359944524]}}, {"type": "Feature", "properties": {"norad_id": 58663, "name": "TIANMU-1 22", "group": "weather", "lat": 58.85285510560683, "lon": 78.2439199618009, "alt_km": 478.14121163326126, "timestamp": "2025-12-05T14:45:14.958055+00:00", "meta": {"OBJECT_NAME": "TIANMU-1 22", "OBJECT_ID": "2023-208D", "EPOCH": "2025-12-04T18:03:14.613408", "MEAN_MOTION": 15.27396045, "ECCENTRICITY": 0.0003007, "INCLINATION": 97.439, "RA_OF_ASC_NODE": 89.8696, "ARG_OF_PERICENTER": 324.9806, "MEAN_ANOMALY": 35.1235, "EPHEMERIS_TYPE": 0, "CLASSIFICATION_TYPE": "U", "NORAD_CAT_ID": 58663, "ELEMENT_SET_NO": 999, "REV_AT_EPOCH": 10761, "BSTAR": 0.00066154, "MEAN_MOTION_DOT": 0.00017694, "MEAN_MOTION_DDOT": 0}, "tle": {"line1": "1 58663U 23208D   25338.75225247  .00017694  00000+0  66154-3 0  9999", "line2": "2 58663  97.4390  89.8696 0003007 324.9806  35.1235 15.27396045107616"}}, "geometry": {"type": "Point", "coordinates": [78.2439199618009, 58.85285510560683]}}, {"type": "Feature", "properties": {"norad_id": 58700, "name": "TIANMU-1 15", "group": "weather", "lat": -80.07006505966325, "lon": -67.3703601259784, "alt_km": 497.8434046325265, "timestamp": "2025-12-05T14:45:14.958065+00:00", "meta": {"OBJECT_NAME": "TIANMU-1 15", "OBJECT_ID": "2024-004A", "EPOCH": "2025-12-04T18:41:54.388608", "MEAN_MOTION": 15.2451637, "ECCENTRICITY": 0.0005679, "INCLINATION": 97.4624, "RA_OF_ASC_NODE": 160.2775, "ARG_OF_PERICENTER": 330.8355, "MEAN_ANOMALY": 29.2565, "EPHEMERIS_TYPE": 0, "CLASSIFICATION_TYPE": "U", "NORAD_CAT_ID": 58700, "ELEMENT_SET_NO": 999, "REV_AT_EPOCH": 10613, "BSTAR": 0.00057433, "MEAN_MOTION_DOT": 0.00014074, "MEAN_MOTION_DDOT": 0}, "tle": {"line1": "1 58700U 24004A   25338.77910172  .00014074  00000+0  57433-3 0  9995", "line2": "2 58700  97.4624 160.2775 0005679 330.8355  29.2565 15.24516370106130"}}, "geometry": {"type": "Point", "coordinates": [-67.3703601259784, -80.07006505966325]}}, {"type": "Feature", "properties": {"norad_id": 58701, "name": "TIANMU-1 16", "group": "weather", "lat": -8.459564368148701, "lon": 161.62356652541837, "alt_km": 493.9471037129497, "timestamp": "2025-12-05T14:45:14.958076+00:00", "meta": {"OBJECT_NAME": "TIANMU-1 16", "OBJECT_ID": "2024-004B", "EPOCH": "2025-12-04T10:25:53.796288", "MEAN_MOTION": 15.24253221, "ECCENTRICITY": 0.000511, "INCLINATION": 97.4569, "RA_OF_ASC_NODE": 159.3334, "ARG_OF_PERICENTER": 331.1239, "MEAN_ANOMALY": 28.9715, "EPHEMERIS_TYPE": 0, "CLASSIFICATION_TYPE": "U", "NORAD_CAT_ID": 58701, "ELEMENT_SET_NO": 999, "REV_AT_EPOCH": 10608, "BSTAR": 8.3688e-05, "MEAN_MOTION_DOT": 1.97e-05, "MEAN_MOTION_DDOT": 0}, "tle": {"line1": "1 58701U 24004B   25338.43465042  .00001970  00000+0  83688-4 0  9993", "line2": "2 58701  97.4569 159.3334 0005110 331.1239  28.9715 15.24253221106084"}}, "geometry": {"type": "Point", "coordinates": [161.62356652541837, -8.459564368148701]}}, {"type": "Feature", "properties": {"norad_id": 58702, "name": "TIANMU-1 17", "group": "weather", "lat": 73.29480385237042, "lon": 135.02676847726764, "alt_km": 486.5003597575069, "timestamp": "2025-12-05T14:45:14.958085+00:00", "meta": {"OBJECT_NAME": "TIANMU-1 17", "OBJECT_ID": "2024-004C", "EPOCH": "2025-12-04T17:56:42.695232", "MEAN_MOTION": 15.24312361, "ECCENTRICITY": 0.0004208, "INCLINATION": 97.4595, "RA_OF_ASC_NODE": 160.0501, "ARG_OF_PERICENTER": 333.5998, "MEAN_ANOMALY": 26.5024, "EPHEMERIS_TYPE": 0, "CLASSIFICATION_TYPE": "U", "NORAD_CAT_ID": 58702, "ELEMENT_SET_NO": 999, "REV_AT_EPOCH": 10612, "BSTAR": 0.00054682, "MEAN_MOTION_DOT": 0.00013311, "MEAN_MOTION_DDOT": 0}, "tle": {"line1": "1 58702U 24004C   25338.74771638  .00013311  00000+0  54682-3 0  9992", "line2": "2 58702  97.4595 160.0501 0004208 333.5998  26.5024 15.24312361106127"}}, "geometry": {"type": "Point", "coordinates": [135.02676847726764, 73.29480385237042]}}, {"type": "Feature", "properties": {"norad_id": 58703, "name": "TIANMU-1 18", "group": "weather", "lat": 12.990274783895746, "lon": -17.160716818128993, "alt_km": 496.4362261925444, "timestamp": "2025-12-05T14:45:14.958095+00:00", "meta": {"OBJECT_NAME": "TIANMU-1 18", "OBJECT_ID": "2024-004D", "EPOCH": "2025-12-04T17:32:36.132000", "MEAN_MOTION": 15.24303484, "ECCENTRICITY": 0.0003586, "INCLINATION": 97.4613, "RA_OF_ASC_NODE": 160.227, "ARG_OF_PERICENTER": 334.7201, "MEAN_ANOMALY": 25.386, "EPHEMERIS_TYPE": 0, "CLASSIFICATION_TYPE": "U", "NORAD_CAT_ID": 58703, "ELEMENT_SET_NO": 999, "REV_AT_EPOCH": 10612, "BSTAR": 0.00056601, "MEAN_MOTION_DOT": 0.00013777, "MEAN_MOTION_DDOT": 0}, "tle": {"line1": "1 58703U 24004D   25338.73097375  .00013777  00000+0  56601-3 0  9990", "line2": "2 58703  97.4613 160.2270 0003586 334.7201  25.3860 15.24303484106123"}}, "geometry": {"type": "Point", "coordinates": [-17.160716818128993, 12.990274783895746]}}, {"type": "Feature", "properties": {"norad_id": 58990, "name": "INSAT-3DS", "group": "weather", "lat": 0.02327853933829613, "lon": 18.055107884171388, "alt_km": 35790.418967066, "timestamp": "2025-12-05T14:45:14.958109+00:00", "meta": {"OBJECT_NAME": "INSAT-3DS", "OBJECT_ID": "2024-033A", "EPOCH": "2025-12-04T14:07:02.364384", "MEAN_MOTION": 1.00268719, "ECCENTRICITY": 0.0001758, "INCLINATION": 0.0119, "RA_OF_ASC_NODE": 346.2482, "ARG_OF_PERICENTER": 274.3669, "MEAN_ANOMALY": 106.8853, "EPHEMERIS_TYPE": 0, "CLASSIFICATION_TYPE": "U", "NORAD_CAT_ID": 58990, "ELEMENT_SET_NO": 999, "REV_AT_EPOCH": 4511, "BSTAR": 0, "MEAN_MOTION_DOT": 0, "MEAN_MOTION_DDOT": 0}, "tle": {"line1": "1 58990U 24033A   25338.58822181  .00000000  00000+0  00000+0 0  9997", "line2": "2 58990   0.0119 346.2482 0001758 274.3669 106.8853  1.00268719 45117"}}, "geometry": {"type": "Point", "coordinates": [18.055107884171388, 0.02327853933829613]}}, {"type": "Feature", "properties": {"norad_id": 59051, "name": "METEOR-M2 4", "group": "weather", "lat": 71.20005414473053, "lon": -90.01152959460926, "alt_km": 807.256427803678, "timestamp": "2025-12-05T14:45:14.958120+00:00", "meta": {"OBJECT_NAME": "METEOR-M2 4", "OBJECT_ID": "2024-039A", "EPOCH": "2025-12-04T18:09:09.180000", "MEAN_MOTION": 14.22399386, "ECCENTRICITY": 0.0007471, "INCLINATION": 98.6754, "RA_OF_ASC_NODE": 295.7909, "ARG_OF_PERICENTER": 20.8279, "MEAN_ANOMALY": 339.3202, "EPHEMERIS_TYPE": 0, "CLASSIFICATION_TYPE": "U", "NORAD_CAT_ID": 59051, "ELEMENT_SET_NO": 999, "REV_AT_EPOCH": 9162, "BSTAR": 6.2659e-05, "MEAN_MOTION_DOT": 9.6e-07, "MEAN_MOTION_DDOT": 0}, "tle": {"line1": "1 59051U 24039A   25338.75635625  .00000096  00000+0  62659-4 0  9994", "line2": "2 59051  98.6754 295.7909 0007471  20.8279 339.3202 14.22399386 91626"}}, "geometry": {"type": "Point", "coordinates": [-90.01152959460926, 71.20005414473053]}}, {"type": "Feature", "properties": {"norad_id": 60133, "name": "GOES 19", "group": "weather", "lat": -0.0021930877997485398, "lon": -139.23308573078322, "alt_km": 35785.25892964699, "timestamp": "2025-12-05T14:45:14.958131+00:00", "meta": {"OBJECT_NAME": "GOES 19", "OBJECT_ID": "2024-119A", "EPOCH": "2025-12-04T11:39:20.571264", "MEAN_MOTION": 1.00270587, "ECCENTRICITY": 0.0001344, "INCLINATION": 0.0089, "RA_OF_ASC_NODE": 79.657, "ARG_OF_PERICENTER": 218.516, "MEAN_ANOMALY": 235.0408, "EPHEMERIS_TYPE": 0, "CLASSIFICATION_TYPE": "U", "NORAD_CAT_ID": 60133, "ELEMENT_SET_NO": 999, "REV_AT_EPOCH": 501, "BSTAR": 0, "MEAN_MOTION_DOT": -2.33e-06, "MEAN_MOTION_DDOT": 0}, "tle": {"line1": "1 60133U 24119A   25338.48565476 -.00000233  00000+0  00000+0 0  9993", "line2": "2 60133   0.0089  79.6570 0001344 218.5160 235.0408  1.00270587  5019"}}, "geometry": {"type": "Point", "coordinates": [-139.23308573078322, -0.0021930877997485398]}}, {"type": "Feature", "properties": {"norad_id": 65815, "name": "FENGYUN 3H", "group": "weather", "lat": 15.801698340018277, "lon": -83.11110556287497, "alt_km": 826.0820563263269, "timestamp": "2025-12-05T14:45:14.958142+00:00", "meta": {"OBJECT_NAME": "FENGYUN 3H", "OBJECT_ID": "2025-219A", "EPOCH": "2025-12-04T16:41:35.952864", "MEAN_MOTION": 14.19901167, "ECCENTRICITY": 6.19e-05, "INCLINATION": 98.6572, "RA_OF_ASC_NODE": 278.4611, "ARG_OF_PERICENTER": 73.715, "MEAN_ANOMALY": 286.4095, "EPHEMERIS_TYPE": 0, "CLASSIFICATION_TYPE": "U", "NORAD_CAT_ID": 65815, "ELEMENT_SET_NO": 999, "REV_AT_EPOCH": 978, "BSTAR": 0.00011312, "MEAN_MOTION_DOT": 1.97e-06, "MEAN_MOTION_DDOT": 0}, "tle": {"line1": "1 65815U 25219A   25338.69555501  .00000197  00000+0  11312-3 0  9998", "line2": "2 65815  98.6572 278.4611 0000619  73.7150 286.4095 14.19901167  9789"}}, "geometry": {"type": "Point", "coordinates": [-83.11110556287497, 15.801698340018277]}}]}